[{"OBJECT_NAME":"STARLINK-1225","OBJECT_ID":"2020-012K","EPOCH":"2026-03-09T22:29:34.222560","MEAN_MOTION":15.30176175,"ECCENTRICITY":0.00010251,"INCLINATION":53.1593,"RA_OF_ASC_NODE":38.5192,"ARG_OF_PERICENTER":81.7248,"MEAN_ANOMALY":278.3869,"EPHEMERIS_TYPE":0,"CLASSIFICATION_TYPE":"U","NORAD_CAT_ID":45187,"ELEMENT_SET_NO":999,"REV_AT_EPOCH":33497,"BSTAR":0.0001649413,"MEAN_MOTION_DOT":4.526e-5,"MEAN_MOTION_DDOT":0},{"OBJECT_NAME":"ARCSTONE","OBJECT_ID":"2025-135N","EPOCH":"2026-03-09T21:21:29.017152","MEAN_MOTION":15.28638458,"ECCENTRICITY":0.00041199,"INCLINATION":97.4495,"RA_OF_ASC_NODE":185.9194,"ARG_OF_PERICENTER":166.7863,"MEAN_ANOMALY":193.3485,"EPHEMERIS_TYPE":0,"CLASSIFICATION_TYPE":"U","NORAD_CAT_ID":64540,"ELEMENT_SET_NO":999,"REV_AT_EPOCH":3984,"BSTAR":0.00094899777,"MEAN_MOTION_DOT":0.00026427,"MEAN_MOTION_DDOT":0}]
